{"type": "FeatureCollection", "features": [ {"type": "Feature", "properties": {"norad_id": 66613, "name": "STARLINK-36037", "group": "last-30-days", "lat": -41.39721662600876, "lon": 132.12831707921129, "alt_km": 340.7619340734018, "timestamp": "2025-12-04T13:51:59.228426+00:00", "meta": {"OBJECT_NAME": "STARLINK-36037", "OBJECT_ID": "2025-270AB", "EPOCH": "2025-12-03T10:57:19.045152", "MEAN_MOTION": 15.77412165, "ECCENTRICITY": 0.0004122, "INCLINATION": 43.0001, "RA_OF_ASC_NODE": 247.8703, "ARG_OF_PERICENTER": 349.4174, "MEAN_ANOMALY": 10.6608, "EPHEMERIS_TYPE": 0, "CLASSIFICATION_TYPE": "U", "NORAD_CAT_ID": 66613, "ELEMENT_SET_NO": 999, "REV_AT_EPOCH": 289, "BSTAR": 0.00072767216, "MEAN_MOTION_DOT": 0.00125531, "MEAN_MOTION_DDOT": 0}, "tle": {"line1": "1 66613U 25270AB  25337.45647043  .00125531  00000+0  72767-3 0  9999", "line2": "2 66613  43.0001 247.8703 0004122 349.4174  10.6608 15.77412165  2893"}}, "geometry": {"type": "Point", "coordinates": [132.12831707921129, -41.39721662600876]}}, {"type": "Feature", "properties": {"norad_id": 66614, "name": "STARLINK-36040", "group": "last-30-days", "lat": -40.150415422013246, "lon": 125.92662488956182, "alt_km": 346.61221140953967, "timestamp": "2025-12-04T13:51:59.228436+00:00", "meta": {"OBJECT_NAME": "STARLINK-36040", "OBJECT_ID": "2025-270AC", "EPOCH": "2025-12-04T02:09:10.049760", "MEAN_MOTION": 15.75155659, "ECCENTRICITY": 0.00015806, "INCLINATION": 42.9982, "RA_OF_ASC_NODE": 244.0184, "ARG_OF_PERICENTER": 273.7322, "MEAN_ANOMALY": 86.3367, "EPHEMERIS_TYPE": 0, "CLASSIFICATION_TYPE": "U", "NORAD_CAT_ID": 66614, "ELEMENT_SET_NO": 999, "REV_AT_EPOCH": 283, "BSTAR": -0.00034480323, "MEAN_MOTION_DOT": -0.00053378, "MEAN_MOTION_DDOT": 0}, "tle": {"line1": "1 66614U 25270AC  25338.08969965 -.00053378  00000+0 -34480-3 0  9991", "line2": "2 66614  42.9982 244.0184 0001580 273.7322  86.3367 15.75155659  2837"}}, "geometry": {"type": "Point", "coordinates": [125.92662488956182, -40.150415422013246]}}, {"type": "Feature", "properties": {"norad_id": 66615, "name": "STARLINK-35988", "group": "last-30-days", "lat": -41.8145265368892, "lon": 134.78343734335232, "alt_km": 331.6913048528777, "timestamp": "2025-12-04T13:51:59.228448+00:00", "meta": {"OBJECT_NAME": "STARLINK-35988", "OBJECT_ID": "2025-270AD", "EPOCH": "2025-12-04T00:37:22.745280", "MEAN_MOTION": 15.77540776, "ECCENTRICITY": 0.0012646, "INCLINATION": 42.9993, "RA_OF_ASC_NODE": 244.4008, "ARG_OF_PERICENTER": 273.4991, "MEAN_ANOMALY": 86.4432, "EPHEMERIS_TYPE": 0, "CLASSIFICATION_TYPE": "U", "NORAD_CAT_ID": 66615, "ELEMENT_SET_NO": 999, "REV_AT_EPOCH": 282, "BSTAR": 0.0020154804, "MEAN_MOTION_DOT": 0.00361862, "MEAN_MOTION_DDOT": 0}, "tle": {"line1": "1 66615U 25270AD  25338.02595770  .00361862  00000+0  20155-2 0  9996", "line2": "2 66615  42.9993 244.4008 0012646 273.4991  86.4432 15.77540776  2826"}}, "geometry": {"type": "Point", "coordinates": [134.78343734335232, -41.8145265368892]}}, {"type": "Feature", "properties": {"norad_id": 66616, "name": "STARLINK-35391", "group": "last-30-days", "lat": -40.670373227821266, "lon": 128.29332479203393, "alt_km": 346.33873218297504, "timestamp": "2025-12-04T13:51:59.228458+00:00", "meta": {"OBJECT_NAME": "STARLINK-35391", "OBJECT_ID": "2025-270AE", "EPOCH": "2025-12-04T02:08:40.786944", "MEAN_MOTION": 15.75136623, "ECCENTRICITY": 0.00020065, "INCLINATION": 42.9984, "RA_OF_ASC_NODE": 244.0161, "ARG_OF_PERICENTER": 260.4817, "MEAN_ANOMALY": 99.5825, "EPHEMERIS_TYPE": 0, "CLASSIFICATION_TYPE": "U", "NORAD_CAT_ID": 66616, "ELEMENT_SET_NO": 999, "REV_AT_EPOCH": 310, "BSTAR": -0.00039566881, "MEAN_MOTION_DOT": -0.00061081, "MEAN_MOTION_DDOT": 0}, "tle": {"line1": "1 66616U 25270AE  25338.08936096 -.00061081  00000+0 -39567-3 0  9993", "line2": "2 66616  42.9984 244.0161 0002006 260.4817  99.5825 15.75136623  3108"}}, "geometry": {"type": "Point", "coordinates": [128.29332479203393, -40.670373227821266]}}, {"type": "Feature", "properties": {"norad_id": 66617, "name": "STARLINK-35940", "group": "last-30-days", "lat": 48.77995628354964, "lon": -11.575700601907005, "alt_km": 319.4069100792731, "timestamp": "2025-12-04T13:51:59.228470+00:00", "meta": {"OBJECT_NAME": "STARLINK-35940", "OBJECT_ID": "2025-271A", "EPOCH": "2025-12-04T07:20:17.055744", "MEAN_MOTION": 15.8184412, "ECCENTRICITY": 6.781e-05, "INCLINATION": 53.1574, "RA_OF_ASC_NODE": 228.6482, "ARG_OF_PERICENTER": 40.0862, "MEAN_ANOMALY": 320.0211, "EPHEMERIS_TYPE": 0, "CLASSIFICATION_TYPE": "U", "NORAD_CAT_ID": 66617, "ELEMENT_SET_NO": 999, "REV_AT_EPOCH": 288, "BSTAR": -0.0029443395, "MEAN_MOTION_DOT": -0.00570206, "MEAN_MOTION_DDOT": 0}, "tle": {"line1": "1 66617U 25271A   25338.30575296 -.00570206  00000+0 -29443-2 0  9996", "line2": "2 66617  53.1574 228.6482 0000678  40.0862 320.0211 15.81844120  2887"}}, "geometry": {"type": "Point", "coordinates": [-11.575700601907005, 48.77995628354964]}}, {"type": "Feature", "properties": {"norad_id": 66618, "name": "STARLINK-35970", "group": "last-30-days", "lat": -0.9438879929235393, "lon": 47.84091508446788, "alt_km": 333.5063695483468, "timestamp": "2025-12-04T13:51:59.228481+00:00", "meta": {"OBJECT_NAME": "STARLINK-35970", "OBJECT_ID": "2025-271B", "EPOCH": "2025-12-04T07:01:44.889024", "MEAN_MOTION": 15.79917371, "ECCENTRICITY": 3.162e-05, "INCLINATION": 53.1561, "RA_OF_ASC_NODE": 228.5587, "ARG_OF_PERICENTER": 102.4711, "MEAN_ANOMALY": 257.6346, "EPHEMERIS_TYPE": 0, "CLASSIFICATION_TYPE": "U", "NORAD_CAT_ID": 66618, "ELEMENT_SET_NO": 999, "REV_AT_EPOCH": 288, "BSTAR": -0.006207329, "MEAN_MOTION_DOT": -0.01057394, "MEAN_MOTION_DDOT": 0}, "tle": {"line1": "1 66618U 25271B   25338.29288066 -.01057394  00000+0 -62073-2 0  9996", "line2": "2 66618  53.1561 228.5587 0000316 102.4711 257.6346 15.79917371  2884"}}, "geometry": {"type": "Point", "coordinates": [47.84091508446788, -0.9438879929235393]}}, {"type": "Feature", "properties": {"norad_id": 66619, "name": "STARLINK-35951", "group": "last-30-days", "lat": 44.27517104938521, "lon": 0.2855050415889094, "alt_km": 319.5633534207336, "timestamp": "2025-12-04T13:51:59.228491+00:00", "meta": {"OBJECT_NAME": "STARLINK-35951", "OBJECT_ID": "2025-271C", "EPOCH": "2025-12-04T04:16:02.720064", "MEAN_MOTION": 15.82239043, "ECCENTRICITY": 7.32e-05, "INCLINATION": 53.157, "RA_OF_ASC_NODE": 229.2711, "ARG_OF_PERICENTER": 166.7997, "MEAN_ANOMALY": 193.3046, "EPHEMERIS_TYPE": 0, "CLASSIFICATION_TYPE": "U", "NORAD_CAT_ID": 66619, "ELEMENT_SET_NO": 999, "REV_AT_EPOCH": 286, "BSTAR": -0.0035607942, "MEAN_MOTION_DOT": -0.00692598, "MEAN_MOTION_DDOT": 0}, "tle": {"line1": "1 66619U 25271C   25338.17780926 -.00692598  00000+0 -35608-2 0  9990", "line2": "2 66619  53.1570 229.2711 0000732 166.7997 193.3046 15.82239043  2861"}}, "geometry": {"type": "Point", "coordinates": [0.2855050415889094, 44.27517104938521]}}, {"type": "Feature", "properties": {"norad_id": 66620, "name": "STARLINK-35936", "group": "last-30-days", "lat": 47.635942574909265, "lon": -8.027168734113177, "alt_km": 318.81928771337516, "timestamp": "2025-12-04T13:51:59.228501+00:00", "meta": {"OBJECT_NAME": "STARLINK-35936", "OBJECT_ID": "2025-271D", "EPOCH": "2025-12-04T07:19:43.850496", "MEAN_MOTION": 15.82136973, "ECCENTRICITY": 0.00014316, "INCLINATION": 53.1571, "RA_OF_ASC_NODE": 228.6455, "ARG_OF_PERICENTER": 278.3238, "MEAN_ANOMALY": 81.7623, "EPHEMERIS_TYPE": 0, "CLASSIFICATION_TYPE": "U", "NORAD_CAT_ID": 66620, "ELEMENT_SET_NO": 999, "REV_AT_EPOCH": 288, "BSTAR": 0.00036452393, "MEAN_MOTION_DOT": 0.00076253, "MEAN_MOTION_DDOT": 0}, "tle": {"line1": "1 66620U 25271D   25338.30536864  .00076253  00000+0  36452-3 0  9998", "line2": "2 66620  53.1571 228.6455 0001431 278.3238  81.7623 15.82136973  2888"}}, "geometry": {"type": "Point", "coordinates": [-8.027168734113177, 47.635942574909265]}}, {"type": "Feature", "properties": {"norad_id": 66621, "name": "STARLINK-35847", "group": "last-30-days", "lat": -5.618779740355518, "lon": 51.351387536034245, "alt_km": 332.7114883428694, "timestamp": "2025-12-04T13:51:59.228511+00:00", "meta": {"OBJECT_NAME": "STARLINK-35847", "OBJECT_ID": "2025-271E", "EPOCH": "2025-12-04T05:29:14.400960", "MEAN_MOTION": 15.80119551, "ECCENTRICITY": 8.297e-05, "INCLINATION": 53.1563, "RA_OF_ASC_NODE": 228.8686, "ARG_OF_PERICENTER": 162.0892, "MEAN_ANOMALY": 198.016, "EPHEMERIS_TYPE": 0, "CLASSIFICATION_TYPE": "U", "NORAD_CAT_ID": 66621, "ELEMENT_SET_NO": 999, "REV_AT_EPOCH": 287, "BSTAR": -0.0041389351, "MEAN_MOTION_DOT": -0.00726477, "MEAN_MOTION_DDOT": 0}, "tle": {"line1": "1 66621U 25271E   25338.22863890 -.00726477  00000+0 -41389-2 0  9998", "line2": "2 66621  53.1563 228.8686 0000829 162.0892 198.0160 15.80119551  2871"}}, "geometry": {"type": "Point", "coordinates": [51.351387536034245, -5.618779740355518]}}, {"type": "Feature", "properties": {"norad_id": 66622, "name": "STARLINK-35950", "group": "last-30-days", "lat": 43.12939208839352, "lon": 2.639704791610757, "alt_km": 320.6086134736979, "timestamp": "2025-12-04T13:51:59.228541+00:00", "meta": {"OBJECT_NAME": "STARLINK-35950", "OBJECT_ID": "2025-271F", "EPOCH": "2025-12-04T07:17:24.782784", "MEAN_MOTION": 15.81843167, "ECCENTRICITY": 3.916e-05, "INCLINATION": 53.157, "RA_OF_ASC_NODE": 228.6341, "ARG_OF_PERICENTER": 311.7184, "MEAN_ANOMALY": 48.3805, "EPHEMERIS_TYPE": 0, "CLASSIFICATION_TYPE": "U", "NORAD_CAT_ID": 66622, "ELEMENT_SET_NO": 999, "REV_AT_EPOCH": 288, "BSTAR": -0.0027019493, "MEAN_MOTION_DOT": -0.00525909, "MEAN_MOTION_DDOT": 0}, "tle": {"line1": "1 66622U 25271F   25338.30375906 -.00525909  00000+0 -27019-2 0  9995", "line2": "2 66622  53.1570 228.6341 0000391 311.7184  48.3805 15.81843167  2889"}}, "geometry": {"type": "Point", "coordinates": [2.639704791610757, 43.12939208839352]}}]}